[{"OBJECT_NAME":"APRIZESAT 3","OBJECT_ID":"2009-041F","EPOCH":"2026-03-09T21:53:07.275264","MEAN_MOTION":14.95902996,"ECCENTRICITY":0.00628853,"INCLINATION":98.1904,"RA_OF_ASC_NODE":217.4844,"ARG_OF_PERICENTER":35.8471,"MEAN_ANOMALY":324.6944,"EPHEMERIS_TYPE":0,"CLASSIFICATION_TYPE":"U","NORAD_CAT_ID":35686,"ELEMENT_SET_NO":999,"REV_AT_EPOCH":90153,"BSTAR":0.00014818153,"MEAN_MOTION_DOT":1.656e-5,"MEAN_MOTION_DDOT":0},{"OBJECT_NAME":"STARLINK-4621","OBJECT_ID":"2022-105AE","EPOCH":"2026-03-09T16:00:46.917216","MEAN_MOTION":15.01252403,"ECCENTRICITY":0.00033108,"INCLINATION":97.601,"RA_OF_ASC_NODE":310.1897,"ARG_OF_PERICENTER":33.3535,"MEAN_ANOMALY":326.7897,"EPHEMERIS_TYPE":0,"CLASSIFICATION_TYPE":"U","NORAD_CAT_ID":53676,"ELEMENT_SET_NO":999,"REV_AT_EPOCH":19323,"BSTAR":-7.6560656e-5,"MEAN_MOTION_DOT":-1.041e-5,"MEAN_MOTION_DDOT":0}]
